[Satellite]
VERSION=1.1
NAME=STARLINK-1155
NICKNAME=STARLINK-1155
TLE1=1 45053U 20006K   20058.91667824 -.00052584  00000-0 -13312-2 0  9991
TLE2=2 45053  52.9969  92.3108 0001414  65.7074 103.7266 15.39213644  1768
STATUS=0
